<!doctype html>

<html>

<head>

<title>TLE for NORAD Catalog Number 44282</title>

</head>

<body>

<pre>
STARLINK-80             
1 44282U 19029AZ  19301.93171016  .00004418  00000-0  19722-3 0  9994
2 44282  53.0169 167.2212 0001527 165.0514 195.0527 15.23368229 22569

</pre>
	
</body>

</html>
